[{"OBJECT_NAME":"STARLINK-3943","OBJECT_ID":"2022-051AA","EPOCH":"2026-03-09T09:16:12.005184","MEAN_MOTION":15.08833945,"ECCENTRICITY":0.00014326,"INCLINATION":53.217,"RA_OF_ASC_NODE":130.4823,"ARG_OF_PERICENTER":103.149,"MEAN_ANOMALY":256.9662,"EPHEMERIS_TYPE":0,"CLASSIFICATION_TYPE":"U","NORAD_CAT_ID":52557,"ELEMENT_SET_NO":999,"REV_AT_EPOCH":21140,"BSTAR":-2.8406095e-5,"MEAN_MOTION_DOT":-7.4e-6,"MEAN_MOTION_DDOT":0},{"OBJECT_NAME":"YUNYAO-1 48","OBJECT_ID":"2025-059F","EPOCH":"2026-03-09T22:24:05.789376","MEAN_MOTION":15.10574052,"ECCENTRICITY":0.00165064,"INCLINATION":97.6074,"RA_OF_ASC_NODE":250.9983,"ARG_OF_PERICENTER":137.6901,"MEAN_ANOMALY":222.5605,"EPHEMERIS_TYPE":0,"CLASSIFICATION_TYPE":"U","NORAD_CAT_ID":63349,"ELEMENT_SET_NO":999,"REV_AT_EPOCH":5331,"BSTAR":0.00030523847,"MEAN_MOTION_DOT":4.989e-5,"MEAN_MOTION_DDOT":0}]
